[{"OBJECT_NAME":"STARLINK-34160","OBJECT_ID":"2025-110Z","EPOCH":"2026-03-09T03:33:57.655872","MEAN_MOTION":15.30196666,"ECCENTRICITY":0.00012179,"INCLINATION":53.1618,"RA_OF_ASC_NODE":28.9858,"ARG_OF_PERICENTER":65.2368,"MEAN_ANOMALY":294.8759,"EPHEMERIS_TYPE":0,"CLASSIFICATION_TYPE":"U","NORAD_CAT_ID":64119,"ELEMENT_SET_NO":999,"REV_AT_EPOCH":4580,"BSTAR":0.00092403372,"MEAN_MOTION_DOT":0.00027105,"MEAN_MOTION_DDOT":0},{"OBJECT_NAME":"TRANSPORTER-1 OBJECT L","OBJECT_ID":"2021-006L","EPOCH":"2026-03-09T22:38:42.795168","MEAN_MOTION":15.33192932,"ECCENTRICITY":0.00114726,"INCLINATION":97.2368,"RA_OF_ASC_NODE":117.6447,"ARG_OF_PERICENTER":180.5165,"MEAN_ANOMALY":179.6068,"EPHEMERIS_TYPE":0,"CLASSIFICATION_TYPE":"U","NORAD_CAT_ID":47423,"ELEMENT_SET_NO":999,"REV_AT_EPOCH":28445,"BSTAR":0.00025636794,"MEAN_MOTION_DOT":8.162e-5,"MEAN_MOTION_DDOT":0}]
